OBJECT_NAME,OBJECT_ID,EPOCH,MEAN_MOTION,ECCENTRICITY,INCLINATION,RA_OF_ASC_NODE,ARG_OF_PERICENTER,MEAN_ANOMALY,EPHEMERIS_TYPE,CLASSIFICATION_TYPE,NORAD_CAT_ID,ELEMENT_SET_NO,REV_AT_EPOCH,BSTAR,MEAN_MOTION_DOT,MEAN_MOTION_DDOT
HST,1990-037B,2026-07-15T12:00:30.574368,15.31063070,.00021916,28.4723,247.0189,106.0764,254.0074,0,U,20580,999,79291,.10487846E-3,.3469E-4,0
POLAR,1996-013A,2026-07-14T18:22:21.811008,1.29846068,.64980873,79.8911,226.7248,208.1291,91.6735,0,U,23802,999,14521,0,.202E-5,0
SWAS,1998-071A,2026-07-15T08:58:30.463680,15.09747550,.00079437,69.8941,154.8226,230.3399,129.7065,0,U,25560,999,50152,.10215672E-3,.1547E-4,0
CXO,1999-040B,2026-07-17T11:15:10.202112,0.37805709,.7787022,56.6226,115.7943,310.0504,0.5333,0,U,25867,999,1743,0,.598E-5,0
XMM-NEWTON,1999-066A,2026-07-16T06:30:36.983232,0.50127411,.46657669,64.3306,282.6120,64.4091,0.1022,0,U,25989,999,2314,0,.2E-6,0
TERRA,1999-068A,2026-07-15T14:10:00.698304,14.61123920,.00034312,97.9442,245.0082,121.8524,22.4444,0,U,25994,999,41375,.46298036E-4,.183E-5,0
CLUSTER II-FM7 (SAMBA),2000-041A,2026-07-11T16:19:30.897408,0.44896530,.90823116,149.8437,55.3938,272.8334,359.6328,0,U,26410,999,2042,0,.12833E-3,0
CLUSTER II-FM8 (TANGO),2000-045B,2026-07-14T10:49:09.907104,0.44416740,.9090382,150.0346,57.1658,274.4944,1.9905,0,U,26464,999,2043,0,.19808E-3,0
ODIN,2001-007A,2026-07-15T02:49:01.855776,15.89461170,.00050031,97.3728,239.0985,152.5421,207.6117,0,U,26702,999,39381,.92766465E-3,.26805E-2,.2811748E-4
TIMED,2001-055B,2026-07-15T09:00:31.843584,14.95344710,.00022512,74.0666,178.2592,300.4547,59.6415,0,U,26998,999,33503,.51694429E-4,.53E-5,0
CORIOLIS,2003-001A,2026-07-15T12:34:39.290304,14.19951908,.00149351,98.7135,202.9767,128.3280,231.9242,0,U,27640,999,21824,.38040389E-4,.37E-6,0
SORCE,2003-004A,2026-07-15T02:21:46.299456,15.03841818,.00187098,39.9910,102.4143,253.8759,105.9975,0,U,27651,999,27610,.10927068E-3,.1382E-4,0
MOST,2003-031D,2026-07-15T12:15:27.966240,14.21327770,.0010115,98.7053,203.8419,164.1756,195.9739,0,U,27843,999,19473,.26599943E-4,.14E-6,0
SCISAT 1,2003-036A,2026-07-15T04:22:57.802944,14.81478945,.00073719,73.9301,115.7199,183.8950,176.2171,0,U,27858,999,23559,.39335431E-4,.272E-5,0
SWIFT,2004-047A,2026-07-15T11:10:37.909920,15.71188268,.0002205,20.5527,326.3099,28.4870,331.5697,0,U,28485,999,19131,.30635095E-3,.41696E-3,0
HINODE (SOLAR-B),2006-041A,2026-07-15T12:40:10.474464,14.68658575,.00170525,98.0549,212.2626,193.3810,166.6946,0,U,29479,999,5903,.5958931E-4,.298E-5,0
SHIJIAN-6 02A (SJ-6 02A),2006-046A,2026-07-15T14:02:20.773824,15.17253494,.00042731,97.6344,237.8678,62.0772,298.0893,0,U,29505,999,7657,.31187172E-3,.614E-4,0
SHIJIAN-6 02B (SJ-6 02B),2006-046B,2026-07-15T14:29:47.899968,15.01439023,.0013373,97.7143,225.4864,334.9678,25.0896,0,U,29506,999,7500,.61075398E-4,.729E-5,0
FGRST (GLAST),2008-029A,2026-07-15T12:20:06.919872,15.24078150,.0007766,25.5829,7.7742,303.2193,56.7600,0,U,33053,999,1,.69033678E-4,.2061E-4,0
SDO,2010-005A,2026-07-15T05:23:29.690016,1.00277105,.00019673,34.7083,85.9158,51.0804,134.7094,0,U,36395,999,6034,0,-.103E-5,0
CRYOSAT 2,2010-013A,2026-07-15T14:44:49.816608,14.51898518,.00024001,92.0359,284.2125,98.6735,261.4744,0,U,36508,999,86220,.30998166E-4,.128E-5,0
X-SAT,2011-015C,2026-07-15T14:07:19.360992,14.25213226,.00126927,98.3522,172.2616,259.7828,100.1921,0,U,37389,999,79172,-.54504882E-4,-.169E-5,0
GCOM-W1 (SHIZUKU),2012-025A,2026-07-15T11:20:45.659616,14.57090275,.00013138,98.2024,136.6007,77.8829,40.8664,0,U,38337,999,75315,.52828469E-4,.193E-5,0
NUSTAR,2012-031A,2026-07-15T16:00:03.000096,15.09047808,.00079482,6.0259,180.4705,183.9256,232.9831,0,U,38358,999,130,.35268884E-3,.6618E-4,0
NEOSSAT,2013-009D,2026-07-15T12:03:06.902208,14.35835719,.00114678,98.4190,15.8633,156.3995,203.7719,0,U,39089,999,70080,.31263168E-4,.48E-6,0
BRITE-AUSTRIA,2013-009F,2026-07-15T11:40:50.013408,14.36552592,.00107765,98.4008,15.2239,149.8332,210.3477,0,U,39091,999,70111,.39530721E-4,.73E-6,0
IRIS,2013-033A,2026-07-15T12:21:34.101792,14.85937284,.00233476,97.9319,35.7028,223.9146,136.0214,0,U,39197,999,70458,.64789131E-4,.512E-5,0
HISAKI (SPRINT-A),2013-049A,2026-07-15T02:45:29.419776,13.55546759,.01369834,29.7212,78.0202,243.2375,115.4122,0,U,39253,999,63521,.28060217E-4,.88E-6,0
CASSIOPE,2013-055A,2026-07-15T14:39:38.763648,15.27437431,.02827895,80.9127,32.1337,326.4695,31.8907,0,U,39265,999,67200,.21430828E-3,.20003E-3,-.530041E-6
STSAT-3,2013-066G,2026-07-15T14:38:42.785088,15.02886479,.00089238,97.6189,166.0396,303.8739,56.1637,0,U,39422,999,68847,.10879569E-3,.14E-4,0
