HST                     
1 20580U 90037B   26196.50035387  .00003469  00000+0  10488-3 0  9994
2 20580  28.4723 247.0189 0002191 106.0764 254.0074 15.31063070792917
POLAR                   
1 23802U 96013A   26195.76553022  .00000202  00000+0  00000+0 0  9999
2 23802  79.8911 226.7248 6498087 208.1291  91.6735  1.29846068145216
SWAS                    
1 25560U 98071A   26196.37396370  .00001547  00000+0  10216-3 0  9994
2 25560  69.8941 154.8226 0007943 230.3399 129.7065 15.09747550501523
CXO                     
1 25867U 99040B   26198.46886808  .00000598  00000+0  00000+0 0  9994
2 25867  56.6226 115.7943 7787022 310.0504   0.5333  0.37805709 17431
XMM-NEWTON              
1 25989U 99066A   26197.27126138  .00000020  00000+0  00000+0 0  9998
2 25989  64.3306 282.6120 4665766  64.4091   0.1022  0.50127411 23148
TERRA                   
1 25994U 99068A   26196.59028586  .00000183  00000+0  46298-4 0  9992
2 25994  97.9442 245.0082 0003431 121.8524  22.4444 14.61123920413750
CLUSTER II-FM7 (SAMBA)  
1 26410U 00041A   26192.68021872  .00012833  00000+0  00000+0 0  9997
2 26410 149.8437  55.3938 9082311 272.8334 359.6328  0.44896530 20420
CLUSTER II-FM8 (TANGO)  
1 26464U 00045B   26195.45080911  .00019808  00000+0  00000+0 0  9996
2 26464 150.0346  57.1658 9090382 274.4944   1.9905  0.44416740 20433
ODIN                    
1 26702U 01007A   26196.11738259  .00268050  28117-4  92766-3 0  9992
2 26702  97.3728 239.0985 0005003 152.5421 207.6117 15.89461170393819
TIMED                   
1 26998U 01055B   26196.37536856  .00000530  00000+0  51694-4 0  9998
2 26998  74.0666 178.2592 0002251 300.4547  59.6415 14.95344710335034
CORIOLIS                
1 27640U 03001A   26196.52406586  .00000037  00000+0  38040-4 0  9991
2 27640  98.7135 202.9767 0014935 128.3280 231.9242 14.19951908218240
SORCE                   
1 27651U 03004A   26196.09845254  .00001382  00000+0  10927-3 0  9994
2 27651  39.9910 102.4143 0018709 253.8759 105.9975 15.03841818276104
MOST                    
1 27843U 03031D   26196.51074035  .00000014  00000+0  26600-4 0  9992
2 27843  98.7053 203.8419 0010115 164.1756 195.9739 14.21327770194734
SCISAT 1                
1 27858U 03036A   26196.18261346  .00000272  00000+0  39335-4 0  9994
2 27858  73.9301 115.7199 0007371 183.8950 176.2171 14.81478945235590
SWIFT                   
1 28485U 04047A   26196.46571655  .00041696  00000+0  30635-3 0  9990
2 28485  20.5527 326.3099 0002205  28.4870 331.5697 15.71188268191316
HINODE (SOLAR-B)        
1 29479U 06041A   26196.52789901  .00000298  00000+0  59589-4 0  9995
2 29479  98.0549 212.2626 0017052 193.3810 166.6946 14.68658575 59039
SHIJIAN-6 02A (SJ-6 02A)
1 29505U 06046A   26196.58496266  .00006140  00000+0  31187-3 0  9990
2 29505  97.6344 237.8678 0004273  62.0772 298.0893 15.17253494 76572
SHIJIAN-6 02B (SJ-6 02B)
1 29506U 06046B   26196.60402662  .00000729  00000+0  61075-4 0  9998
2 29506  97.7143 225.4864 0013373 334.9678  25.0896 15.01439023 75003
FGRST (GLAST)           
1 33053U 08029A   26196.51396898  .00002061  00000+0  69034-4 0  9990
2 33053  25.5829   7.7742 0007766 303.2193  56.7600 15.24078150    19
SDO                     
1 36395U 10005A   26196.22464919 -.00000103  00000+0  00000+0 0  9996
2 36395  34.7083  85.9158 0001967  51.0804 134.7094  1.00277105 60344
CRYOSAT 2               
1 36508U 10013A   26196.61446547  .00000128  00000+0  30998-4 0  9991
2 36508  92.0359 284.2125 0002400  98.6735 261.4744 14.51898518862206
X-SAT                   
1 37389U 11015C   26196.58841853 -.00000169  00000+0 -54505-4 0  9994
2 37389  98.3522 172.2616 0012692 259.7828 100.1921 14.25213226791725
GCOM-W1 (SHIZUKU)       
1 38337U 12025A   26196.47275069  .00000193  00000+0  52828-4 0  9999
2 38337  98.2024 136.6007 0001313  77.8829  40.8664 14.57090275753152
NUSTAR                  
1 38358U 12031A   26196.66670139  .00006618  00000+0  35269-3 0  9994
2 38358   6.0259 180.4705 0007948 183.9256 232.9831 15.09047808  1302
NEOSSAT                 
1 39089U 13009D   26196.50216322  .00000048  00000+0  31263-4 0  9997
2 39089  98.4190  15.8633 0011467 156.3995 203.7719 14.35835719700805
BRITE-AUSTRIA           
1 39091U 13009F   26196.48668997  .00000073  00000+0  39531-4 0  9990
2 39091  98.4008  15.2239 0010776 149.8332 210.3477 14.36552592701112
IRIS                    
1 39197U 13033A   26196.51497803  .00000512  00000+0  64789-4 0  9995
2 39197  97.9319  35.7028 0023347 223.9146 136.0214 14.85937284704582
HISAKI (SPRINT-A)       
1 39253U 13049A   26196.11492384  .00000088  00000+0  28060-4 0  9990
2 39253  29.7212  78.0202 0136983 243.2375 115.4122 13.55546759635215
CASSIOPE                
1 39265U 13055A   26196.61086532  .00020003 -53004-6  21431-3 0  9992
2 39265  80.9127  32.1337 0282789 326.4695  31.8907 15.27437431672004
STSAT-3                 
1 39422U 13066G   26196.61021742  .00001400  00000+0  10880-3 0  9997
2 39422  97.6189 166.0396 0008923 303.8739  56.1637 15.02886479688479
